[{"OBJECT_NAME":"RESOURCESAT-2A","OBJECT_ID":"2016-074A","EPOCH":"2026-03-09T23:20:04.284384","MEAN_MOTION":14.21600566,"ECCENTRICITY":0.00024894,"INCLINATION":98.7596,"RA_OF_ASC_NODE":143.2604,"ARG_OF_PERICENTER":35.4222,"MEAN_ANOMALY":324.712,"EPHEMERIS_TYPE":0,"CLASSIFICATION_TYPE":"U","NORAD_CAT_ID":41877,"ELEMENT_SET_NO":999,"REV_AT_EPOCH":48020,"BSTAR":7.9593145e-5,"MEAN_MOTION_DOT":1.3e-6,"MEAN_MOTION_DDOT":0},{"OBJECT_NAME":"START 1","OBJECT_ID":"1993-014A","EPOCH":"2026-03-09T18:20:20.866560","MEAN_MOTION":14.22566889,"ECCENTRICITY":0.0192598,"INCLINATION":75.7633,"RA_OF_ASC_NODE":176.3825,"ARG_OF_PERICENTER":42.9653,"MEAN_ANOMALY":318.636,"EPHEMERIS_TYPE":0,"CLASSIFICATION_TYPE":"U","NORAD_CAT_ID":22561,"ELEMENT_SET_NO":999,"REV_AT_EPOCH":70972,"BSTAR":6.4135653e-5,"MEAN_MOTION_DOT":1.6e-6,"MEAN_MOTION_DDOT":0}]
